{
  "type": "FeatureCollection",
  "features": [
    {
      "type": "Feature",
      "properties": {
        "norad_id": 31177,
        "name": "FENGYUN 1C DEB",
        "group": "fengyun-1c-debris",
        "lat": -69.19244719346425,
        "lon": 58.15738263088497,
        "alt_km": 905.0380577908463,
        "timestamp": "2025-12-14T20:40:32.052475+00:00",
        "meta_object_name": "FENGYUN 1C DEB",
        "meta_object_id": "1999-025BJF",
        "meta_epoch": "2025-12-08T17:24:07.966080",
        "meta_mean_motion": 13.622528,
        "meta_eccentricity": 0.0310599,
        "meta_inclination": 98.7576,
        "meta_ra_of_asc_node": 256.5653,
        "meta_arg_of_pericenter": 324.298,
        "meta_mean_anomaly": 91.0785,
        "meta_ephemeris_type": 0,
        "meta_classification_type": "U",
        "meta_norad_cat_id": 31177,
        "meta_element_set_no": 999,
        "meta_rev_at_epoch": 66157,
        "meta_bstar": 0.0076571,
        "meta_mean_motion_dot": 8.152e-05,
        "meta_mean_motion_ddot": 0,
        "tle_line1": "1 31177U 99025BJF 25342.72509220  .00008152  00000+0  76571-2 0  9990",
        "tle_line2": "2 31177  98.7576 256.5653 0310599 324.2980  91.0785 13.62252800661574"
      },
      "geometry": {
        "type": "Point",
        "coordinates": [
          58.15738263088497,
          -69.19244719346425
        ]
      }
    },
    {
      "type": "Feature",
      "properties": {
        "norad_id": 31178,
        "name": "FENGYUN 1C DEB",
        "group": "fengyun-1c-debris",
        "lat": 64.90526748897184,
        "lon": -29.718235863058176,
        "alt_km": 851.8158405855538,
        "timestamp": "2025-12-14T20:40:32.052485+00:00",
        "meta_object_name": "FENGYUN 1C DEB",
        "meta_object_id": "1999-025BJG",
        "meta_epoch": "2025-12-12T19:24:00.562176",
        "meta_mean_motion": 14.22209578,
        "meta_eccentricity": 0.0126012,
        "meta_inclination": 99.5138,
        "meta_ra_of_asc_node": 349.0501,
        "meta_arg_of_pericenter": 315.3865,
        "meta_mean_anomaly": 43.7222,
        "meta_ephemeris_type": 0,
        "meta_classification_type": "U",
        "meta_norad_cat_id": 31178,
        "meta_element_set_no": 999,
        "meta_rev_at_epoch": 95816,
        "meta_bstar": 0.0030368224,
        "meta_mean_motion_dot": 7.261e-05,
        "meta_mean_motion_ddot": 0,
        "tle_line1": "1 31178U 99025BJG 25346.80833984  .00007261  00000+0  30368-2 0  9995",
        "tle_line2": "2 31178  99.5138 349.0501 0126012 315.3865  43.7222 14.22209578958161"
      },
      "geometry": {
        "type": "Point",
        "coordinates": [
          -29.718235863058176,
          64.90526748897184
        ]
      }
    },
    {
      "type": "Feature",
      "properties": {
        "norad_id": 31179,
        "name": "FENGYUN 1C DEB",
        "group": "fengyun-1c-debris",
        "lat": 44.97358615782836,
        "lon": -0.40074291094726106,
        "alt_km": 816.4307498414692,
        "timestamp": "2025-12-14T20:40:32.052495+00:00",
        "meta_object_name": "FENGYUN 1C DEB",
        "meta_object_id": "1999-025BJH",
        "meta_epoch": "2025-12-12T18:26:10.438368",
        "meta_mean_motion": 13.91924415,
        "meta_eccentricity": 0.02155249,
        "meta_inclination": 99.02,
        "meta_ra_of_asc_node": 6.6928,
        "meta_arg_of_pericenter": 0.697,
        "meta_mean_anomaly": 359.4451,
        "meta_ephemeris_type": 0,
        "meta_classification_type": "U",
        "meta_norad_cat_id": 31179,
        "meta_element_set_no": 999,
        "meta_rev_at_epoch": 61941,
        "meta_bstar": 0.0016054364,
        "meta_mean_motion_dot": 2.431e-05,
        "meta_mean_motion_ddot": 0,
        "tle_line1": "1 31179U 99025BJH 25346.76817637  .00002431  00000+0  16054-2 0  9998",
        "tle_line2": "2 31179  99.0200   6.6928 0215524   0.6970 359.4451 13.91924415619416"
      },
      "geometry": {
        "type": "Point",
        "coordinates": [
          -0.40074291094726106,
          44.97358615782836
        ]
      }
    },
    {
      "type": "Feature",
      "properties": {
        "norad_id": 31180,
        "name": "FENGYUN 1C DEB",
        "group": "fengyun-1c-debris",
        "lat": -16.89824541682409,
        "lon": 123.14935458402695,
        "alt_km": 870.0637493816776,
        "timestamp": "2025-12-14T20:40:32.052506+00:00",
        "meta_object_name": "FENGYUN 1C DEB",
        "meta_object_id": "1999-025BJJ",
        "meta_epoch": "2025-12-13T08:05:25.156608",
        "meta_mean_motion": 13.70343855,
        "meta_eccentricity": 0.04982305,
        "meta_inclination": 99.2175,
        "meta_ra_of_asc_node": 118.8542,
        "meta_arg_of_pericenter": 58.455,
        "meta_mean_anomaly": 333.7181,
        "meta_ephemeris_type": 0,
        "meta_classification_type": "U",
        "meta_norad_cat_id": 31180,
        "meta_element_set_no": 999,
        "meta_rev_at_epoch": 64075,
        "meta_bstar": 0.00032557541,
        "meta_mean_motion_dot": 6.53e-06,
        "meta_mean_motion_ddot": 0,
        "tle_line1": "1 31180U 99025BJJ 25347.33709672  .00000653  00000+0  32558-3 0  9995",
        "tle_line2": "2 31180  99.2175 118.8542 0498230  58.4550 333.7181 13.70343855640757"
      },
      "geometry": {
        "type": "Point",
        "coordinates": [
          123.14935458402695,
          -16.89824541682409
        ]
      }
    },
    {
      "type": "Feature",
      "properties": {
        "norad_id": 31181,
        "name": "FENGYUN 1C DEB",
        "group": "fengyun-1c-debris",
        "lat": -13.510519735525682,
        "lon": -160.7604602413666,
        "alt_km": 877.131789723303,
        "timestamp": "2025-12-14T20:40:32.052516+00:00",
        "meta_object_name": "FENGYUN 1C DEB",
        "meta_object_id": "1999-025BJK",
        "meta_epoch": "2025-12-14T01:11:51.759168",
        "meta_mean_motion": 14.11891456,
        "meta_eccentricity": 0.00480272,
        "meta_inclination": 98.7777,
        "meta_ra_of_asc_node": 20.5729,
        "meta_arg_of_pericenter": 70.973,
        "meta_mean_anomaly": 319.3359,
        "meta_ephemeris_type": 0,
        "meta_classification_type": "U",
        "meta_norad_cat_id": 31181,
        "meta_element_set_no": 999,
        "meta_rev_at_epoch": 95786,
        "meta_bstar": 0.0011297231,
        "meta_mean_motion_dot": 2.044e-05,
        "meta_mean_motion_ddot": 0,
        "tle_line1": "1 31181U 99025BJK 25348.04990462  .00002044  00000+0  11297-2 0  9996",
        "tle_line2": "2 31181  98.7777  20.5729 0048027  70.9730 319.3359 14.11891456957861"
      },
      "geometry": {
        "type": "Point",
        "coordinates": [
          -160.7604602413666,
          -13.510519735525682
        ]
      }
    },
    {
      "type": "Feature",
      "properties": {
        "norad_id": 31182,
        "name": "FENGYUN 1C DEB",
        "group": "fengyun-1c-debris",
        "lat": 5.541245493212301,
        "lon": -23.17230514116902,
        "alt_km": 855.4088814490578,
        "timestamp": "2025-12-14T20:40:32.052526+00:00",
        "meta_object_name": "FENGYUN 1C DEB",
        "meta_object_id": "1999-025BJL",
        "meta_epoch": "2025-12-09T05:08:12.053760",
        "meta_mean_motion": 14.14545929,
        "meta_eccentricity": 0.0023077,
        "meta_inclination": 98.6814,
        "meta_ra_of_asc_node": 332.187,
        "meta_arg_of_pericenter": 146.444,
        "meta_mean_anomaly": 276.6011,
        "meta_ephemeris_type": 0,
        "meta_classification_type": "U",
        "meta_norad_cat_id": 31182,
        "meta_element_set_no": 999,
        "meta_rev_at_epoch": 96031,
        "meta_bstar": 0.00059768,
        "meta_mean_motion_dot": 1.107e-05,
        "meta_mean_motion_ddot": 0,
        "tle_line1": "1 31182U 99025BJL 25343.21402840  .00001107  00000+0  59768-3 0  9994",
        "tle_line2": "2 31182  98.6814 332.1870 0023077 146.4440 276.6011 14.14545929960315"
      },
      "geometry": {
        "type": "Point",
        "coordinates": [
          -23.17230514116902,
          5.541245493212301
        ]
      }
    },
    {
      "type": "Feature",
      "properties": {
        "norad_id": 31183,
        "name": "FENGYUN 1C DEB",
        "group": "fengyun-1c-debris",
        "lat": -12.051487797701293,
        "lon": 150.80814687917172,
        "alt_km": 728.9323766092884,
        "timestamp": "2025-12-14T20:40:32.052536+00:00",
        "meta_object_name": "FENGYUN 1C DEB",
        "meta_object_id": "1999-025BJM",
        "meta_epoch": "2025-12-12T05:11:08.156832",
        "meta_mean_motion": 14.50428357,
        "meta_eccentricity": 0.00474882,
        "meta_inclination": 99.0365,
        "meta_ra_of_asc_node": 329.9181,
        "meta_arg_of_pericenter": 108.9889,
        "meta_mean_anomaly": 317.1431,
        "meta_ephemeris_type": 0,
        "meta_classification_type": "U",
        "meta_norad_cat_id": 31183,
        "meta_element_set_no": 999,
        "meta_rev_at_epoch": 97475,
        "meta_bstar": 0.0019094587,
        "meta_mean_motion_dot": 7.526e-05,
        "meta_mean_motion_ddot": 0,
        "tle_line1": "1 31183U 99025BJM 25346.21606663  .00007526  00000+0  19095-2 0  9996",
        "tle_line2": "2 31183  99.0365 329.9181 0047488 108.9889 317.1431 14.50428357974758"
      },
      "geometry": {
        "type": "Point",
        "coordinates": [
          150.80814687917172,
          -12.051487797701293
        ]
      }
    }
  ]
}